{
    "links": {
        "self": "http://www.neowsapp.com/rest/v1/neo/3836846?api_key=iIulBulltgU6a56xZRHN4H3l9WmuAYTsLGpBGhQ2"
    },
    "id": "3836846",
    "neo_reference_id": "3836846",
    "name": "(2018 XJ2)",
    "designation": "2018 XJ2",
    "nasa_jpl_url": "http://ssd.jpl.nasa.gov/sbdb.cgi?sstr=3836846",
    "absolute_magnitude_h": 23.3,
    "estimated_diameter": {
        "kilometers": {
            "estimated_diameter_min": 0.058150704,
            "estimated_diameter_max": 0.130028927
        },
        "meters": {
            "estimated_diameter_min": 58.1507039646,
            "estimated_diameter_max": 130.0289270043
        },
        "miles": {
            "estimated_diameter_min": 0.0361331611,
            "estimated_diameter_max": 0.0807962044
        },
        "feet": {
            "estimated_diameter_min": 190.7831555951,
            "estimated_diameter_max": 426.6041048727
        }
    },
    "is_potentially_hazardous_asteroid": false,
    "close_approach_data": [
        {
            "close_approach_date": "2018-12-17",
            "close_approach_date_full": "2018-Dec-17 20:00",
            "epoch_date_close_approach": 1545076800000,
            "relative_velocity": {
                "kilometers_per_second": "11.1588268012",
                "kilometers_per_hour": "40171.7764842984",
                "miles_per_hour": "24961.1796715909"
            },
            "miss_distance": {
                "astronomical": "0.110647813",
                "lunar": "43.041999257",
                "kilometers": "16552677.14495831",
                "miles": "10285356.639552278"
            },
            "orbiting_body": "Earth"
        },
        {
            "close_approach_date": "2019-05-04",
            "close_approach_date_full": "2019-May-04 20:31",
            "epoch_date_close_approach": 1557001860000,
            "relative_velocity": {
                "kilometers_per_second": "6.3217653344",
                "kilometers_per_hour": "22758.3552037432",
                "miles_per_hour": "14141.1568764592"
            },
            "miss_distance": {
                "astronomical": "0.4034445293",
                "lunar": "156.9399218977",
                "kilometers": "60354442.246432591",
                "miles": "37502511.3973721158"
            },
            "orbiting_body": "Earth"
        }
    ],
    "orbital_data": {
        "orbit_id": "3",
        "orbit_determination_date": "2019-01-21 07:51:19",
        "first_observation_date": "2018-12-09",
        "last_observation_date": "2018-12-19",
        "data_arc_in_days": 10,
        "observations_used": 34,
        "orbit_uncertainty": "9",
        "minimum_orbit_intersection": ".0975814",
        "jupiter_tisserand_invariant": "4.479",
        "epoch_osculation": "2458464.5",
        "eccentricity": ".381062918737603",
        "semi_major_axis": "1.482979882182504",
        "inclination": "10.66500149328076",
        "ascending_node_longitude": "62.60043211955885",
        "orbital_period": "659.6313927717548",
        "perihelion_distance": ".9178712398488924",
        "perihelion_argument": "80.22191589235409",
        "aphelion_distance": "2.048088524516115",
        "perihelion_time": "2458514.788259238990",
        "mean_anomaly": "332.5547123371967",
        "mean_motion": ".5457593497593995",
        "equinox": "J2000",
        "orbit_class": {
            "orbit_class_type": "APO",
            "orbit_class_description": "Near-Earth asteroid orbits which cross the Earth’s orbit similar to that of 1862 Apollo",
            "orbit_class_range": "a (semi-major axis) > 1.0 AU; q (perihelion) < 1.017 AU"
        }
    },
    "is_sentry_object": false
}